[{"OBJECT_NAME":"ONEWEB-0673","OBJECT_ID":"2023-029AN","EPOCH":"2026-05-14T05:25:52.919616","MEAN_MOTION":13.19723953,"ECCENTRICITY":0.0001939,"INCLINATION":87.9154,"RA_OF_ASC_NODE":311.737,"ARG_OF_PERICENTER":88.1249,"MEAN_ANOMALY":272.0106,"EPHEMERIS_TYPE":0,"CLASSIFICATION_TYPE":"U","NORAD_CAT_ID":55832,"ELEMENT_SET_NO":999,"REV_AT_EPOCH":15442,"BSTAR":3.3982e-05,"MEAN_MOTION_DOT":2.7e-07,"MEAN_MOTION_DDOT":0.0},{"OBJECT_NAME":"ONEWEB-0674","OBJECT_ID":"2023-029AP","EPOCH":"2026-05-14T00:05:18.958560","MEAN_MOTION":13.14501612,"ECCENTRICITY":0.000221,"INCLINATION":87.8923,"RA_OF_ASC_NODE":296.5408,"ARG_OF_PERICENTER":89.6679,"MEAN_ANOMALY":270.4704,"EPHEMERIS_TYPE":0,"CLASSIFICATION_TYPE":"U","NORAD_CAT_ID":55833,"ELEMENT_SET_NO":999,"REV_AT_EPOCH":15492,"BSTAR":-0.00028719,"MEAN_MOTION_DOT":-9.4e-07,"MEAN_MOTION_DDOT":0.0},{"OBJECT_NAME":"ONEWEB-0675","OBJECT_ID":"2023-029AQ","EPOCH":"2026-05-14T05:47:30.295104","MEAN_MOTION":13.19725336,"ECCENTRICITY":0.0001581,"INCLINATION":87.9146,"RA_OF_ASC_NODE":311.7467,"ARG_OF_PERICENTER":98.2054,"MEAN_ANOMALY":261.9258,"EPHEMERIS_TYPE":0,"CLASSIFICATION_TYPE":"U","NORAD_CAT_ID":55834,"ELEMENT_SET_NO":999,"REV_AT_EPOCH":15444,"BSTAR":-2.3604e-05,"MEAN_MOTION_DOT":4e-08,"MEAN_MOTION_DDOT":0.0},{"OBJECT_NAME":"ONEWEB-0720","OBJECT_ID":"2023-029AR","EPOCH":"2026-05-14T05:36:07.389504","MEAN_MOTION":13.19725349,"ECCENTRICITY":0.0001709,"INCLINATION":87.9145,"RA_OF_ASC_NODE":311.7487,"ARG_OF_PERICENTER":81.6714,"MEAN_ANOMALY":278.4612,"EPHEMERIS_TYPE":0,"CLASSIFICATION_TYPE":"U","NORAD_CAT_ID":55835,"ELEMENT_SET_NO":999,"REV_AT_EPOCH":15436,"BSTAR":0.000101,"MEAN_MOTION_DOT":5.3e-07,"MEAN_MOTION_DDOT":0.0},{"OBJECT_NAME":"ONEWEB-0537","OBJECT_ID":"2023-043A","EPOCH":"2026-05-14T07:11:55.756032","MEAN_MOTION":13.16595843,"ECCENTRICITY":0.0001999,"INCLINATION":87.9103,"RA_OF_ASC_NODE":235.4999,"ARG_OF_PERICENTER":107.594,"MEAN_ANOMALY":252.541,"EPHEMERIS_TYPE":0,"CLASSIFICATION_TYPE":"U","NORAD_CAT_ID":56046,"ELEMENT_SET_NO":999,"REV_AT_EPOCH":15450,"BSTAR":-0.00010537,"MEAN_MOTION_DOT":-2.7e-07,"MEAN_MOTION_DDOT":0.0},{"OBJECT_NAME":"ONEWEB-0538","OBJECT_ID":"2023-043B","EPOCH":"2026-05-14T07:02:48.972768","MEAN_MOTION":13.1659547,"ECCENTRICITY":0.0001728,"INCLINATION":87.9104,"RA_OF_ASC_NODE":235.5031,"ARG_OF_PERICENTER":103.8901,"MEAN_ANOMALY":256.2423,"EPHEMERIS_TYPE":0,"CLASSIFICATION_TYPE":"U","NORAD_CAT_ID":56047,"ELEMENT_SET_NO":999,"REV_AT_EPOCH":15451,"BSTAR":2.0117e-05,"MEAN_MOTION_DOT":2.1e-07,"MEAN_MOTION_DDOT":0.0},{"OBJECT_NAME":"ONEWEB-0546","OBJECT_ID":"2023-043C","EPOCH":"2026-05-14T06:44:34.661472","MEAN_MOTION":13.16595343,"ECCENTRICITY":0.0002199,"INCLINATION":87.9106,"RA_OF_ASC_NODE":235.5053,"ARG_OF_PERICENTER":119.488,"MEAN_ANOMALY":240.647,"EPHEMERIS_TYPE":0,"CLASSIFICATION_TYPE":"U","NORAD_CAT_ID":56048,"ELEMENT_SET_NO":999,"REV_AT_EPOCH":15450,"BSTAR":0.00014986,"MEAN_MOTION_DOT":7e-07,"MEAN_MOTION_DDOT":0.0},{"OBJECT_NAME":"ONEWEB-0547","OBJECT_ID":"2023-043D","EPOCH":"2026-05-14T06:15:01.050048","MEAN_MOTION":13.21826614,"ECCENTRICITY":0.0001792,"INCLINATION":87.9241,"RA_OF_ASC_NODE":250.725,"ARG_OF_PERICENTER":97.2548,"MEAN_ANOMALY":262.8789,"EPHEMERIS_TYPE":0,"CLASSIFICATION_TYPE":"U","NORAD_CAT_ID":56049,"ELEMENT_SET_NO":999,"REV_AT_EPOCH":15374,"BSTAR":0.0001134,"MEAN_MOTION_DOT":6e-07,"MEAN_MOTION_DDOT":0.0},{"OBJECT_NAME":"ONEWEB-0548","OBJECT_ID":"2023-043E","EPOCH":"2026-05-14T07:19:54.943392","MEAN_MOTION":13.16593591,"ECCENTRICITY":0.0002435,"INCLINATION":87.9101,"RA_OF_ASC_NODE":235.4976,"ARG_OF_PERICENTER":98.007,"MEAN_ANOMALY":262.1337,"EPHEMERIS_TYPE":0,"CLASSIFICATION_TYPE":"U","NORAD_CAT_ID":56050,"ELEMENT_SET_NO":999,"REV_AT_EPOCH":15450,"BSTAR":-0.00013544999999999999,"MEAN_MOTION_DOT":-3.9e-07,"MEAN_MOTION_DDOT":0.0},{"OBJECT_NAME":"ONEWEB-0549","OBJECT_ID":"2023-043F","EPOCH":"2026-05-14T06:06:33.535584","MEAN_MOTION":13.21827014,"ECCENTRICITY":0.0001559,"INCLINATION":87.9239,"RA_OF_ASC_NODE":250.7336,"ARG_OF_PERICENTER":101.1635,"MEAN_ANOMALY":258.9674,"EPHEMERIS_TYPE":0,"CLASSIFICATION_TYPE":"U","NORAD_CAT_ID":56051,"ELEMENT_SET_NO":999,"REV_AT_EPOCH":15374,"BSTAR":6.8599e-05,"MEAN_MOTION_DOT":4.1e-07,"MEAN_MOTION_DDOT":0.0},{"OBJECT_NAME":"ONEWEB-0550","OBJECT_ID":"2023-043G","EPOCH":"2026-05-14T07:36:09.518112","MEAN_MOTION":13.21824254,"ECCENTRICITY":0.0002171,"INCLINATION":87.9243,"RA_OF_ASC_NODE":250.7184,"ARG_OF_PERICENTER":97.0374,"MEAN_ANOMALY":263.1007,"EPHEMERIS_TYPE":0,"CLASSIFICATION_TYPE":"U","NORAD_CAT_ID":56052,"ELEMENT_SET_NO":999,"REV_AT_EPOCH":15375,"BSTAR":-8.7579e-05,"MEAN_MOTION_DOT":-2.3e-07,"MEAN_MOTION_DDOT":0.0},{"OBJECT_NAME":"ONEWEB-0551","OBJECT_ID":"2023-043H","EPOCH":"2026-05-14T07:25:59.013984","MEAN_MOTION":13.15560648,"ECCENTRICITY":0.0001619,"INCLINATION":87.8979,"RA_OF_ASC_NODE":265.9791,"ARG_OF_PERICENTER":96.8307,"MEAN_ANOMALY":263.3008,"EPHEMERIS_TYPE":0,"CLASSIFICATION_TYPE":"U","NORAD_CAT_ID":56053,"ELEMENT_SET_NO":999,"REV_AT_EPOCH":15194,"BSTAR":0.0030493,"MEAN_MOTION_DOT":1.161e-05,"MEAN_MOTION_DDOT":0.0},{"OBJECT_NAME":"ONEWEB-0552","OBJECT_ID":"2023-043J","EPOCH":"2026-05-14T07:28:54.779232","MEAN_MOTION":13.21824471,"ECCENTRICITY":0.000191,"INCLINATION":87.9242,"RA_OF_ASC_NODE":250.7258,"ARG_OF_PERICENTER":94.5824,"MEAN_ANOMALY":265.5529,"EPHEMERIS_TYPE":0,"CLASSIFICATION_TYPE":"U","NORAD_CAT_ID":56054,"ELEMENT_SET_NO":999,"REV_AT_EPOCH":15375,"BSTAR":2.7087e-05,"MEAN_MOTION_DOT":2.4e-07,"MEAN_MOTION_DDOT":0.0},{"OBJECT_NAME":"ONEWEB-0553","OBJECT_ID":"2023-043K","EPOCH":"2026-05-14T06:53:41.420544","MEAN_MOTION":13.16595698,"ECCENTRICITY":0.0002229,"INCLINATION":87.9103,"RA_OF_ASC_NODE":235.5051,"ARG_OF_PERICENTER":110.6361,"MEAN_ANOMALY":249.5009,"EPHEMERIS_TYPE":0,"CLASSIFICATION_TYPE":"U","NORAD_CAT_ID":56055,"ELEMENT_SET_NO":999,"REV_AT_EPOCH":15451,"BSTAR":2.6217000000000003e-05,"MEAN_MOTION_DOT":2.3e-07,"MEAN_MOTION_DDOT":0.0},{"OBJECT_NAME":"ONEWEB-0554","OBJECT_ID":"2023-043L","EPOCH":"2026-05-14T06:35:27.605184","MEAN_MOTION":13.16595617,"ECCENTRICITY":0.0002302,"INCLINATION":87.9099,"RA_OF_ASC_NODE":235.5169,"ARG_OF_PERICENTER":100.6368,"MEAN_ANOMALY":259.5022,"EPHEMERIS_TYPE":0,"CLASSIFICATION_TYPE":"U","NORAD_CAT_ID":56056,"ELEMENT_SET_NO":999,"REV_AT_EPOCH":15449,"BSTAR":0.00024104,"MEAN_MOTION_DOT":1.05e-06,"MEAN_MOTION_DDOT":0.0},{"OBJECT_NAME":"ONEWEB-0555","OBJECT_ID":"2023-043M","EPOCH":"2026-05-14T07:30:11.094624","MEAN_MOTION":13.16593667,"ECCENTRICITY":0.0002272,"INCLINATION":87.9104,"RA_OF_ASC_NODE":235.4962,"ARG_OF_PERICENTER":116.3355,"MEAN_ANOMALY":243.8009,"EPHEMERIS_TYPE":0,"CLASSIFICATION_TYPE":"U","NORAD_CAT_ID":56057,"ELEMENT_SET_NO":999,"REV_AT_EPOCH":15450,"BSTAR":-0.00023746000000000002,"MEAN_MOTION_DOT":-7.8e-07,"MEAN_MOTION_DDOT":0.0},{"OBJECT_NAME":"ONEWEB-0557","OBJECT_ID":"2023-043N","EPOCH":"2026-05-14T06:01:15.499776","MEAN_MOTION":13.16595588,"ECCENTRICITY":0.0003258,"INCLINATION":87.9103,"RA_OF_ASC_NODE":235.5191,"ARG_OF_PERICENTER":107.7336,"MEAN_ANOMALY":252.4151,"EPHEMERIS_TYPE":0,"CLASSIFICATION_TYPE":"U","NORAD_CAT_ID":56058,"ELEMENT_SET_NO":999,"REV_AT_EPOCH":15449,"BSTAR":-9.9571e-05,"MEAN_MOTION_DOT":-2.5e-07,"MEAN_MOTION_DDOT":0.0},{"OBJECT_NAME":"ONEWEB-0558","OBJECT_ID":"2023-043P","EPOCH":"2026-05-14T07:19:10.352352","MEAN_MOTION":13.21816248,"ECCENTRICITY":0.0001568,"INCLINATION":87.9243,"RA_OF_ASC_NODE":250.7212,"ARG_OF_PERICENTER":103.6956,"MEAN_ANOMALY":256.4353,"EPHEMERIS_TYPE":0,"CLASSIFICATION_TYPE":"U","NORAD_CAT_ID":56059,"ELEMENT_SET_NO":999,"REV_AT_EPOCH":15376,"BSTAR":-2.4925000000000003e-05,"MEAN_MOTION_DOT":3e-08,"MEAN_MOTION_DDOT":0.0},{"OBJECT_NAME":"ONEWEB-0559","OBJECT_ID":"2023-043Q","EPOCH":"2026-05-14T07:02:15.523008","MEAN_MOTION":13.21825149,"ECCENTRICITY":0.0001743,"INCLINATION":87.9251,"RA_OF_ASC_NODE":250.7177,"ARG_OF_PERICENTER":95.3472,"MEAN_ANOMALY":264.7861,"EPHEMERIS_TYPE":0,"CLASSIFICATION_TYPE":"U","NORAD_CAT_ID":56060,"ELEMENT_SET_NO":999,"REV_AT_EPOCH":15377,"BSTAR":5.5088000000000005e-05,"MEAN_MOTION_DOT":3.6e-07,"MEAN_MOTION_DDOT":0.0},{"OBJECT_NAME":"ONEWEB-0566","OBJECT_ID":"2023-043R","EPOCH":"2026-05-14T06:52:34.591872","MEAN_MOTION":13.21825188,"ECCENTRICITY":0.0001676,"INCLINATION":87.9246,"RA_OF_ASC_NODE":250.7175,"ARG_OF_PERICENTER":94.421,"MEAN_ANOMALY":265.7115,"EPHEMERIS_TYPE":0,"CLASSIFICATION_TYPE":"U","NORAD_CAT_ID":56061,"ELEMENT_SET_NO":999,"REV_AT_EPOCH":15375,"BSTAR":0.00027664,"MEAN_MOTION_DOT":1.27e-06,"MEAN_MOTION_DDOT":0.0},{"OBJECT_NAME":"ONEWEB-0568","OBJECT_ID":"2023-043S","EPOCH":"2026-05-14T06:26:19.020480","MEAN_MOTION":13.16595744,"ECCENTRICITY":0.0002107,"INCLINATION":87.9102,"RA_OF_ASC_NODE":235.506,"ARG_OF_PERICENTER":109.6154,"MEAN_ANOMALY":250.5204,"EPHEMERIS_TYPE":0,"CLASSIFICATION_TYPE":"U","NORAD_CAT_ID":56062,"ELEMENT_SET_NO":999,"REV_AT_EPOCH":15451,"BSTAR":5.8346e-05,"MEAN_MOTION_DOT":3.5e-07,"MEAN_MOTION_DDOT":0.0},{"OBJECT_NAME":"ONEWEB-0574","OBJECT_ID":"2023-043T","EPOCH":"2026-05-14T06:42:53.374752","MEAN_MOTION":13.21825464,"ECCENTRICITY":0.0002167,"INCLINATION":87.9253,"RA_OF_ASC_NODE":250.7186,"ARG_OF_PERICENTER":101.2157,"MEAN_ANOMALY":258.9221,"EPHEMERIS_TYPE":0,"CLASSIFICATION_TYPE":"U","NORAD_CAT_ID":56063,"ELEMENT_SET_NO":999,"REV_AT_EPOCH":15379,"BSTAR":0.0001994,"MEAN_MOTION_DOT":9.5e-07,"MEAN_MOTION_DDOT":0.0},{"OBJECT_NAME":"ONEWEB-0575","OBJECT_ID":"2023-043U","EPOCH":"2026-05-14T06:17:12.827328","MEAN_MOTION":13.1659563,"ECCENTRICITY":0.0002397,"INCLINATION":87.9102,"RA_OF_ASC_NODE":235.504,"ARG_OF_PERICENTER":104.7987,"MEAN_ANOMALY":255.341,"EPHEMERIS_TYPE":0,"CLASSIFICATION_TYPE":"U","NORAD_CAT_ID":56064,"ELEMENT_SET_NO":999,"REV_AT_EPOCH":15450,"BSTAR":5.5684000000000004e-05,"MEAN_MOTION_DOT":3.4e-07,"MEAN_MOTION_DDOT":0.0}]